IRIDIUM 57              
1 25273U 98019B   24281.87432630  .00002275  00000+0  78518-3 0  9993
2 25273  86.3929 250.8876 0002389  90.3274 269.8196 14.35460391388580
IRIDIUM 63              
1 25286U 98021B   24282.20172168  .00006364  00000+0  21806-2 0  9995
2 25286  86.4056 187.7225 0002365  78.7939 281.3523 14.36086167387942
IRIDIUM 69              
1 25319U 98026A   24282.21461207  .00010516  00000+0  33055-2 0  9996
2 25319  86.4042 201.7431 0004293 108.4974 251.6692 14.40380650387027
IRIDIUM 71              
1 25320U 98026B   24282.19063440  .00006726  00000+0  21015-2 0  9993
2 25320  86.4046 196.4978 0002457 136.3070 223.8324 14.40660070387554
IRIDIUM 73              
1 25344U 98032C   24282.14365057  .00007552  00000+0  19050-2 0  9994
2 25344  86.4450 153.8109 0002757  92.6194 267.5327 14.50987343394301
IRIDIUM 82              
1 25467U 98051A   24281.85997953  .00040992  00000+0  17983-2 0  9992
2 25467  86.3750 232.0827 0117044 162.4633 198.0705 15.15722473385521
